{
  "type": "FeatureCollection",
  "features": [
    {
      "type": "Feature",
      "properties": {
        "norad_id": 24876,
        "name": "GPS BIIR-2  (PRN 13)",
        "group": "gps-ops",
        "lat": 36.38321603611556,
        "lon": 136.11768744550622,
        "alt_km": 19926.206515707952,
        "timestamp": "2025-12-04T07:39:36.395775+00:00",
        "meta_object_name": "GPS BIIR-2  (PRN 13)",
        "meta_object_id": "1997-035A",
        "meta_epoch": "2025-12-03T06:13:52.381920",
        "meta_mean_motion": 2.00563443,
        "meta_eccentricity": 0.00966798,
        "meta_inclination": 55.8906,
        "meta_ra_of_asc_node": 106.2397,
        "meta_arg_of_pericenter": 57.0195,
        "meta_mean_anomaly": 303.8734,
        "meta_ephemeris_type": 0,
        "meta_classification_type": "U",
        "meta_norad_cat_id": 24876,
        "meta_element_set_no": 999,
        "meta_rev_at_epoch": 20802,
        "meta_bstar": 0,
        "meta_mean_motion_dot": 1.7e-07,
        "meta_mean_motion_ddot": 0,
        "tle_line1": "1 24876U 97035A   25337.25963405  .00000017  00000+0  00000+0 0  9991",
        "tle_line2": "2 24876  55.8906 106.2397 0096679  57.0195 303.8734  2.00563443208021"
      },
      "geometry": {
        "type": "Point",
        "coordinates": [
          136.11768744550622,
          36.38321603611556
        ]
      }
    },
    {
      "type": "Feature",
      "properties": {
        "norad_id": 26360,
        "name": "GPS BIIR-4  (PRN 20)",
        "group": "gps-ops",
        "lat": 33.76698891395357,
        "lon": 179.33336555203542,
        "alt_km": 20201.940353086422,
        "timestamp": "2025-12-04T07:39:36.395811+00:00",
        "meta_object_name": "GPS BIIR-4  (PRN 20)",
        "meta_object_id": "2000-025A",
        "meta_epoch": "2025-12-03T20:43:35.059008",
        "meta_mean_motion": 2.0056828,
        "meta_eccentricity": 0.00387989,
        "meta_inclination": 55.0399,
        "meta_ra_of_asc_node": 27.1971,
        "meta_arg_of_pericenter": 241.132,
        "meta_mean_anomaly": 287.663,
        "meta_ephemeris_type": 0,
        "meta_classification_type": "U",
        "meta_norad_cat_id": 26360,
        "meta_element_set_no": 999,
        "meta_rev_at_epoch": 18735,
        "meta_bstar": 0,
        "meta_mean_motion_dot": -7.1e-07,
        "meta_mean_motion_ddot": 0,
        "tle_line1": "1 26360U 00025A   25337.86360022 -.00000071  00000+0  00000+0 0  9998",
        "tle_line2": "2 26360  55.0399  27.1971 0038798 241.1320 287.6630  2.00568280187352"
      },
      "geometry": {
        "type": "Point",
        "coordinates": [
          179.33336555203542,
          33.76698891395357
        ]
      }
    },
    {
      "type": "Feature",
      "properties": {
        "norad_id": 26407,
        "name": "GPS BIIR-5  (PRN 22)",
        "group": "gps-ops",
        "lat": -17.780113054780443,
        "lon": -150.11285639523265,
        "alt_km": 19912.78938810491,
        "timestamp": "2025-12-04T07:39:36.395825+00:00",
        "meta_object_name": "GPS BIIR-5  (PRN 22)",
        "meta_object_id": "2000-040A",
        "meta_epoch": "2025-12-03T20:42:39.159072",
        "meta_mean_motion": 2.00567714,
        "meta_eccentricity": 0.01264991,
        "meta_inclination": 54.893,
        "meta_ra_of_asc_node": 222.9221,
        "meta_arg_of_pericenter": 301.6438,
        "meta_mean_anomaly": 66.2593,
        "meta_ephemeris_type": 0,
        "meta_classification_type": "U",
        "meta_norad_cat_id": 26407,
        "meta_element_set_no": 999,
        "meta_rev_at_epoch": 18603,
        "meta_bstar": 0,
        "meta_mean_motion_dot": 6e-07,
        "meta_mean_motion_ddot": 0,
        "tle_line1": "1 26407U 00040A   25337.86295323  .00000060  00000+0  00000+0 0  9995",
        "tle_line2": "2 26407  54.8930 222.9221 0126499 301.6438  66.2593  2.00567714186037"
      },
      "geometry": {
        "type": "Point",
        "coordinates": [
          -150.11285639523265,
          -17.780113054780443
        ]
      }
    },
    {
      "type": "Feature",
      "properties": {
        "norad_id": 27663,
        "name": "GPS BIIR-8  (PRN 16)",
        "group": "gps-ops",
        "lat": 48.119535267493575,
        "lon": -8.790935259665847,
        "alt_km": 19993.104227475305,
        "timestamp": "2025-12-04T07:39:36.395838+00:00",
        "meta_object_name": "GPS BIIR-8  (PRN 16)",
        "meta_object_id": "2003-005A",
        "meta_epoch": "2025-12-02T11:09:18.319104",
        "meta_mean_motion": 2.00571356,
        "meta_eccentricity": 0.01470397,
        "meta_inclination": 54.9261,
        "meta_ra_of_asc_node": 222.7871,
        "meta_arg_of_pericenter": 51.656,
        "meta_mean_anomaly": 162.4446,
        "meta_ephemeris_type": 0,
        "meta_classification_type": "U",
        "meta_norad_cat_id": 27663,
        "meta_element_set_no": 999,
        "meta_rev_at_epoch": 16736,
        "meta_bstar": 0,
        "meta_mean_motion_dot": 5.6e-07,
        "meta_mean_motion_ddot": 0,
        "tle_line1": "1 27663U 03005A   25336.46479536  .00000056  00000+0  00000+0 0  9994",
        "tle_line2": "2 27663  54.9261 222.7871 0147039  51.6560 162.4446  2.00571356167368"
      },
      "geometry": {
        "type": "Point",
        "coordinates": [
          -8.790935259665847,
          48.119535267493575
        ]
      }
    },
    {
      "type": "Feature",
      "properties": {
        "norad_id": 28190,
        "name": "GPS BIIR-11 (PRN 19)",
        "group": "gps-ops",
        "lat": -54.864584909919046,
        "lon": -160.55965009725966,
        "alt_km": 20264.607681865262,
        "timestamp": "2025-12-04T07:39:36.395849+00:00",
        "meta_object_name": "GPS BIIR-11 (PRN 19)",
        "meta_object_id": "2004-009A",
        "meta_epoch": "2025-12-03T10:35:53.866752",
        "meta_mean_motion": 2.00560969,
        "meta_eccentricity": 0.01082073,
        "meta_inclination": 54.9946,
        "meta_ra_of_asc_node": 283.5937,
        "meta_arg_of_pericenter": 167.4902,
        "meta_mean_anomaly": 191.0311,
        "meta_ephemeris_type": 0,
        "meta_classification_type": "U",
        "meta_norad_cat_id": 28190,
        "meta_element_set_no": 999,
        "meta_rev_at_epoch": 15901,
        "meta_bstar": 0,
        "meta_mean_motion_dot": -4.4e-07,
        "meta_mean_motion_ddot": 0,
        "tle_line1": "1 28190U 04009A   25337.44159568 -.00000044  00000+0  00000+0 0  9992",
        "tle_line2": "2 28190  54.9946 283.5937 0108207 167.4902 191.0311  2.00560969159012"
      },
      "geometry": {
        "type": "Point",
        "coordinates": [
          -160.55965009725966,
          -54.864584909919046
        ]
      }
    },
    {
      "type": "Feature",
      "properties": {
        "norad_id": 28474,
        "name": "GPS BIIR-13 (PRN 02)",
        "group": "gps-ops",
        "lat": -22.036486537682972,
        "lon": -43.5838466062446,
        "alt_km": 19769.843565081428,
        "timestamp": "2025-12-04T07:39:36.395861+00:00",
        "meta_object_name": "GPS BIIR-13 (PRN 02)",
        "meta_object_id": "2004-045A",
        "meta_epoch": "2025-12-02T14:51:16.748640",
        "meta_mean_motion": 2.00568864,
        "meta_eccentricity": 0.01705399,
        "meta_inclination": 55.2456,
        "meta_ra_of_asc_node": 332.8132,
        "meta_arg_of_pericenter": 308.8127,
        "meta_mean_anomaly": 235.5488,
        "meta_ephemeris_type": 0,
        "meta_classification_type": "U",
        "meta_norad_cat_id": 28474,
        "meta_element_set_no": 999,
        "meta_rev_at_epoch": 15448,
        "meta_bstar": 0,
        "meta_mean_motion_dot": -6.2e-07,
        "meta_mean_motion_ddot": 0,
        "tle_line1": "1 28474U 04045A   25336.61894385 -.00000062  00000+0  00000+0 0  9998",
        "tle_line2": "2 28474  55.2456 332.8132 0170539 308.8127 235.5488  2.00568864154486"
      },
      "geometry": {
        "type": "Point",
        "coordinates": [
          -43.5838466062446,
          -22.036486537682972
        ]
      }
    },
    {
      "type": "Feature",
      "properties": {
        "norad_id": 28874,
        "name": "GPS BIIRM-1 (PRN 17)",
        "group": "gps-ops",
        "lat": -50.1250033622191,
        "lon": -135.7499878079554,
        "alt_km": 19836.297381409717,
        "timestamp": "2025-12-04T07:39:36.395873+00:00",
        "meta_object_name": "GPS BIIRM-1 (PRN 17)",
        "meta_object_id": "2005-038A",
        "meta_epoch": "2025-12-02T16:12:27.400896",
        "meta_mean_motion": 2.00548806,
        "meta_eccentricity": 0.01328204,
        "meta_inclination": 55.0411,
        "meta_ra_of_asc_node": 281.1063,
        "meta_arg_of_pericenter": 293.4087,
        "meta_mean_anomaly": 250.3584,
        "meta_ephemeris_type": 0,
        "meta_classification_type": "U",
        "meta_norad_cat_id": 28874,
        "meta_element_set_no": 999,
        "meta_rev_at_epoch": 14789,
        "meta_bstar": 0,
        "meta_mean_motion_dot": -4.3e-07,
        "meta_mean_motion_ddot": 0,
        "tle_line1": "1 28874U 05038A   25336.67531714 -.00000043  00000+0  00000+0 0  9994",
        "tle_line2": "2 28874  55.0411 281.1063 0132820 293.4087 250.3584  2.00548806147896"
      },
      "geometry": {
        "type": "Point",
        "coordinates": [
          -135.7499878079554,
          -50.1250033622191
        ]
      }
    }
  ]
}